ONEWEB-0053             
1 45157U 20008AC  26185.83853764 -.00000659  00000+0 -19238-2 0  9994
2 45157  87.8820  32.7672 0001694  70.1859 289.9451 13.10372868310229
ONEWEB-0054             
1 45158U 20008AD  26185.33972792  .00000710  00000+0  19964-2 0  9995
2 45158  87.8826  32.8508 0001865  84.0870 276.0470 13.10373814310277
ONEWEB-0056             
1 45159U 20008AE  26185.84519037 -.00000341  00000+0 -10142-2 0  9992
2 45159  87.8828  32.7434 0002080  86.0032 274.1333 13.10374071310496
ONEWEB-0057             
1 45160U 20008AF  26185.86245705  .00000391  00000+0  10840-2 0  9992
2 45160  87.8825  32.7518 0001797  68.5396 291.5923 13.10374010310660
ONEWEB-0058             
1 45161U 20008AG  26185.84924556 -.00000131  00000+0 -41133-3 0  9993
2 45161  87.8816  32.7590 0001735  92.8351 267.2975 13.10377115310738
ONEWEB-0059             
1 45162U 20008AH  26185.84548492 -.00000324  00000+0 -96499-3 0  9994
2 45162  87.8820  32.7593 0001614  80.2265 279.9044 13.10372517310635
ONEWEB-0062             
1 45163U 20008AJ  26185.86898120  .00000654  00000+0  18363-2 0  9990
2 45163  87.8826  32.7432 0001898  95.4153 264.7191 13.10374788310505
ONEWEB-0065             
1 45164U 20008AK  26185.82654404 -.00000566  00000+0 -16584-2 0  9999
2 45164  87.8820  32.7596 0001956  77.2679 282.8667 13.10372883310195
ONEWEB-0066             
1 45424U 20020A   26185.77125617 -.00000364  00000+0 -10626-2 0  9992
2 45424  87.8876  17.5697 0001631  88.9444 271.1871 13.11410681304985
ONEWEB-0067             
1 45425U 20020B   26185.80902555  .00000022  00000+0  25886-4 0  9996
2 45425  87.8902  17.4873 0001818  82.5687 277.5647 13.11427265305042
ONEWEB-0080             
1 45426U 20020C   26185.80869158 -.00000022  00000+0 -99188-4 0  9996
2 45426  87.8892  17.5603 0001888  98.2009 261.9334 13.11418287305013
ONEWEB-0090             
1 45427U 20020D   26185.76122463  .00000468  00000+0  12837-2 0  9999
2 45427  87.8888  17.5739 0001866  90.9100 269.2242 13.11415306304978
ONEWEB-0061             
1 45428U 20020E   26185.79314447 -.00000554  00000+0 -15985-2 0  9993
2 45428  87.8887  17.5521 0001810  89.7582 270.3753 13.11416411304930
ONEWEB-0081             
1 45429U 20020F   26185.46945132 -.00000106  00000+0 -33378-3 0  9999
2 45429  87.8883  17.6262 0001689  84.7853 275.3468 13.11414329305003
ONEWEB-0069             
1 45430U 20020G   26185.77648641 -.00000114  00000+0 -35856-3 0  9992
2 45430  87.8884  17.5680 0001663  88.0684 272.0634 13.11417216304972
ONEWEB-0031             
1 45431U 20020H   26185.81195560  .00000105  00000+0  26007-3 0  9991
2 45431  87.8877  17.5648 0001869  94.1003 266.0338 13.11415190304962
ONEWEB-0027             
1 45432U 20020J   26185.72646123  .00000087  00000+0  19067-3 0  9995
2 45432  87.9135   2.3755 0002325  98.3920 261.7475 13.17652828308666
ONEWEB-0064             
1 45433U 20020K   26185.81024167  .00000051  00000+0  10781-3 0  9999
2 45433  87.8883  17.5578 0001952  92.2744 267.8607 13.11420173304995
ONEWEB-0018             
1 45434U 20020L   26185.91861666  .00000369  00000+0  10055-2 0  9999
2 45434  87.8880  17.5356 0001486  95.6794 264.4503 13.11414508304950
ONEWEB-0083             
1 45435U 20020M   26185.83243711  .00000446  00000+0  12212-2 0  9999
2 45435  87.8886  17.5473 0001801  90.8557 269.2778 13.11414724304982
ONEWEB-0095             
1 45436U 20020N   26185.82395235  .00000432  00000+0  11830-2 0  9998
2 45436  87.8889  17.5578 0002463  82.1626 277.9781 13.11416596304987
ONEWEB-0092             
1 45437U 20020P   26185.77810813 -.00002985  00000+0 -84661-2 0  9996
2 45437  87.8886  17.5581 0001795  83.5922 276.5410 13.11379297305093
ONEWEB-0085             
1 45438U 20020Q   26185.83215997  .00000538  00000+0  14822-2 0  9998
2 45438  87.8880  17.5531 0001857  89.1720 270.9621 13.11415653304986
ONEWEB-0096             
1 45439U 20020R   26185.83398557  .00000564  00000+0  15550-2 0  9991
2 45439  87.8886  17.5497 0001974  88.1741 271.9613 13.11414895304974
ONEWEB-0037             
1 45440U 20020S   26185.78431720 -.00000345  00000+0 -10013-2 0  9995
2 45440  87.8898  17.5318 0001903  86.9433 273.1913 13.11913883305000
ONEWEB-0042             
1 45441U 20020T   26185.82368304  .00000513  00000+0  14128-2 0  9994
2 45441  87.8888  17.5482 0001785  86.2783 273.8549 13.11417179304975
ONEWEB-0098             
1 45442U 20020U   26185.81956631  .00000723  00000+0  20038-2 0  9990
2 45442  87.8889  17.5580 0001922  97.2191 262.9155 13.11417556304953
ONEWEB-0055             
1 45443U 20020V   26185.79823791 -.00000465  00000+0 -13470-2 0  9995
2 45443  87.8885  17.5612 0001888  91.3625 268.7719 13.11417155304926
ONEWEB-0093             
1 45444U 20020W   26185.78102938 -.00000333  00000+0 -98245-3 0  9996
2 45444  87.8885  17.5589 0001602  81.9224 278.2085 13.10890666304983
ONEWEB-0029             
1 45445U 20020X   26185.80529610 -.00000303  00000+0 -89156-3 0  9998
2 45445  87.8880  17.5607 0001584  86.0182 274.1127 13.11417151304963
