OBJECT_NAME,OBJECT_ID,EPOCH,MEAN_MOTION,ECCENTRICITY,INCLINATION,RA_OF_ASC_NODE,ARG_OF_PERICENTER,MEAN_ANOMALY,EPHEMERIS_TYPE,CLASSIFICATION_TYPE,NORAD_CAT_ID,ELEMENT_SET_NO,REV_AT_EPOCH,BSTAR,MEAN_MOTION_DOT,MEAN_MOTION_DDOT
ONEWEB-0053,2020-008AC,2026-07-04T20:07:29.652096,13.10372868,.00016943,87.8820,32.7672,70.1859,289.9451,0,U,45157,999,31022,-.19237964E-2,-.659E-5,0
ONEWEB-0054,2020-008AD,2026-07-04T08:09:12.492288,13.10373814,.00018653,87.8826,32.8508,84.0870,276.0470,0,U,45158,999,31027,.19963645E-2,.71E-5,0
ONEWEB-0056,2020-008AE,2026-07-04T20:17:04.447968,13.10374071,.00020805,87.8828,32.7434,86.0032,274.1333,0,U,45159,999,31049,-.10142387E-2,-.341E-5,0
ONEWEB-0057,2020-008AF,2026-07-04T20:41:56.289120,13.10374010,.00017974,87.8825,32.7518,68.5396,291.5923,0,U,45160,999,31066,.10840079E-2,.391E-5,0
ONEWEB-0058,2020-008AG,2026-07-04T20:22:54.816384,13.10377115,.00017358,87.8816,32.7590,92.8351,267.2975,0,U,45161,999,31073,-.41132836E-3,-.131E-5,0
ONEWEB-0059,2020-008AH,2026-07-04T20:17:29.897088,13.10372517,.00016144,87.8820,32.7593,80.2265,279.9044,0,U,45162,999,31063,-.96499339E-3,-.324E-5,0
ONEWEB-0062,2020-008AJ,2026-07-04T20:51:19.975680,13.10374788,.00018983,87.8826,32.7432,95.4153,264.7191,0,U,45163,999,31050,.18362976E-2,.654E-5,0
ONEWEB-0065,2020-008AK,2026-07-04T19:50:13.405056,13.10372883,.00019564,87.8820,32.7596,77.2679,282.8667,0,U,45164,999,31019,-.16583699E-2,-.566E-5,0
ONEWEB-0066,2020-020A,2026-07-04T18:30:36.533088,13.11410681,.00016319,87.8876,17.5697,88.9444,271.1871,0,U,45424,999,30498,-.10626236E-2,-.364E-5,0
ONEWEB-0067,2020-020B,2026-07-04T19:24:59.807520,13.11427265,.00018181,87.8902,17.4873,82.5687,277.5647,0,U,45425,999,30504,.25886098E-4,.22E-6,0
ONEWEB-0080,2020-020C,2026-07-04T19:24:30.952512,13.11418287,.00018889,87.8892,17.5603,98.2009,261.9334,0,U,45426,999,30501,-.9918788E-4,-.22E-6,0
ONEWEB-0090,2020-020D,2026-07-04T18:16:09.808032,13.11415306,.00018661,87.8888,17.5739,90.9100,269.2242,0,U,45427,999,30497,.128373E-2,.468E-5,0
ONEWEB-0061,2020-020E,2026-07-04T19:02:07.682208,13.11416411,.00018108,87.8887,17.5521,89.7582,270.3753,0,U,45428,999,30493,-.15984751E-2,-.554E-5,0
ONEWEB-0081,2020-020F,2026-07-04T11:16:00.594048,13.11414329,.00016897,87.8883,17.6262,84.7853,275.3468,0,U,45429,999,30500,-.33378435E-3,-.106E-5,0
ONEWEB-0069,2020-020G,2026-07-04T18:38:08.425824,13.11417216,.00016633,87.8884,17.5680,88.0684,272.0634,0,U,45430,999,30497,-.35856211E-3,-.114E-5,0
ONEWEB-0031,2020-020H,2026-07-04T19:29:12.963840,13.11415190,.00018698,87.8877,17.5648,94.1003,266.0338,0,U,45431,999,30496,.26006582E-3,.105E-5,0
ONEWEB-0027,2020-020J,2026-07-04T17:26:06.250272,13.17652828,.00023256,87.9135,2.3755,98.3920,261.7475,0,U,45432,999,30866,.19066591E-3,.87E-6,0
ONEWEB-0064,2020-020K,2026-07-04T19:26:44.880288,13.11420173,.00019521,87.8883,17.5578,92.2744,267.8607,0,U,45433,999,30499,.10780597E-3,.51E-6,0
ONEWEB-0018,2020-020L,2026-07-04T22:02:48.479424,13.11414508,.0001486,87.8880,17.5356,95.6794,264.4503,0,U,45434,999,30495,.10054544E-2,.369E-5,0
ONEWEB-0083,2020-020M,2026-07-04T19:58:42.566304,13.11414724,.00018014,87.8886,17.5473,90.8557,269.2778,0,U,45435,999,30498,.12212373E-2,.446E-5,0
ONEWEB-0095,2020-020N,2026-07-04T19:46:29.483040,13.11416596,.00024637,87.8889,17.5578,82.1626,277.9781,0,U,45436,999,30498,.11829657E-2,.432E-5,0
ONEWEB-0092,2020-020P,2026-07-04T18:40:28.542432,13.11379297,.00017957,87.8886,17.5581,83.5922,276.5410,0,U,45437,999,30509,-.8466141E-2,-.2985E-4,0
ONEWEB-0085,2020-020Q,2026-07-04T19:58:18.621408,13.11415653,.00018573,87.8880,17.5531,89.1720,270.9621,0,U,45438,999,30498,.14821972E-2,.538E-5,0
ONEWEB-0096,2020-020R,2026-07-04T20:00:56.353248,13.11414895,.0001974,87.8886,17.5497,88.1741,271.9613,0,U,45439,999,30497,.1555035E-2,.564E-5,0
ONEWEB-0037,2020-020S,2026-07-04T18:49:25.006080,13.11913883,.00019031,87.8898,17.5318,86.9433,273.1913,0,U,45440,999,30500,-.10013396E-2,-.345E-5,0
ONEWEB-0042,2020-020T,2026-07-04T19:46:06.214656,13.11417179,.00017854,87.8888,17.5482,86.2783,273.8549,0,U,45441,999,30497,.1412783E-2,.513E-5,0
ONEWEB-0098,2020-020U,2026-07-04T19:40:10.529184,13.11417556,.00019225,87.8889,17.5580,97.2191,262.9155,0,U,45442,999,30495,.20037817E-2,.723E-5,0
ONEWEB-0055,2020-020V,2026-07-04T19:09:27.755424,13.11417155,.00018885,87.8885,17.5612,91.3625,268.7719,0,U,45443,999,30492,-.13469899E-2,-.465E-5,0
ONEWEB-0093,2020-020W,2026-07-04T18:44:40.938432,13.10890666,.00016021,87.8885,17.5589,81.9224,278.2085,0,U,45444,999,30498,-.98244629E-3,-.333E-5,0
ONEWEB-0029,2020-020X,2026-07-04T19:19:37.583040,13.11417151,.00015844,87.8880,17.5607,86.0182,274.1127,0,U,45445,999,30496,-.89156241E-3,-.303E-5,0
